NORAD_CAT_ID,OBJECT_NAME,OBJECT_TYPE,EPOCH,MEAN_MOTION,ECCENTRICITY,INCLINATION,RA_OF_ASC_NODE,ARG_OF_PERICENTER,MEAN_ANOMALY,BSTAR,MEAN_MOTION_DOT,MEAN_MOTION_DDOT,TLE_LINE0,TLE_LINE1,TLE_LINE2,SEMIMAJOR_AXIS,PERIOD,APOGEE,PERIGEE,DECAYED
52609.0,STARLINK-3997,PAYLOAD,2022-05-29 20:00:01,15.73123053,0.0001194,53.2148,5.3994,112.4111,78.8093,-0.00013442,-0.00019378,0.0,0 STARLINK-3997,1 52609U 22052M   22149.83334491 -.00019378  00000-0 -13442-3 0  9993,2 52609  53.2148   5.3994 0001194 112.4111  78.8093 15.73123053  2741,6728.115,91.538,350.783,349.176,0.0
52609.0,STARLINK-3997,PAYLOAD,2022-05-29 20:42:56,15.73191466,0.0001284999999999,53.2154,5.2507,114.2924,245.823,-0.00011381,-0.00016555,0.0,0 STARLINK-3997,1 52609U 22052M   22149.86315014 -.00016555  00000-0 -11381-3 0  9990,2 52609  53.2154   5.2507 0001285 114.2924 245.8230 15.73191466  2382,6727.92,91.534,350.649,348.92,0.0
52609.0,STARLINK-3997,PAYLOAD,2022-05-30 04:00:00,15.73107888,0.0001095,53.2144,3.7501,111.251,168.7852,0.00062943,0.00088299,0.0,0 STARLINK-3997,1 52609U 22052M   22150.16667824  .00088299  00000-0  62943-3 0  9996,2 52609  53.2144   3.7501 0001095 111.2510 168.7852 15.73107888  2798,6728.158,91.539,350.76,349.286,0.0
52609.0,STARLINK-3997,PAYLOAD,2022-05-30 14:00:01,15.73231315,0.0001155,53.2147,1.6868,127.0147,354.0763,0.00035041,0.0004891,0.0,0 STARLINK-3997,1 52609U 22052M   22150.58334491  .00048910  00000-0  35041-3 0  9998,2 52609  53.2147   1.6868 0001155 127.0147 354.0763 15.73231315  1302,6727.806,91.531,350.4480000000001,348.894,0.0
52609.0,STARLINK-3997,PAYLOAD,2022-05-30 22:00:00,15.73228358,0.0001047,53.2145,0.0392,110.4072,99.6769,-3.0373e-06,-1.046e-05,0.0,0 STARLINK-3997,1 52609U 22052M   22150.91667824 -.00001046  00000-0 -30373-5 0  9990,2 52609  53.2145   0.0392 0001047 110.4072  99.6769 15.73228358  1309,6727.814,91.532,350.384,348.975,0.0
52609.0,STARLINK-3997,PAYLOAD,2022-05-31 04:00:00,15.7325394,0.0001117,53.2142,358.8014,111.0677,75.7241,-0.00059226,-0.00083112,0.0,0 STARLINK-3997,1 52609U 22052M   22151.16667824 -.00083112  00000-0 -59226-3 0  9998,2 52609  53.2142 358.8014 0001117 111.0677  75.7241 15.73253940  2954,6727.741,91.53,350.358,348.855,0.0
52609.0,STARLINK-3997,PAYLOAD,2022-05-31 06:00:02,15.73237954,0.0001171,53.2144,358.3882,114.6044,184.4983,-0.00047661,-0.00067085,0.0,0 STARLINK-3997,1 52609U 22052M   22151.25002315 -.00067085  00000-0 -47661-3 0  9997,2 52609  53.2144 358.3882 0001171 114.6044 184.4983 15.73237954  1307,6727.7869999999975,91.531,350.44,348.86400000000015,0.0
52609.0,STARLINK-3997,PAYLOAD,2022-05-31 12:00:00,15.73165741,0.0001277,53.2146,357.1498,118.7937,156.9551,0.0005824,0.00081795,0.0,0 STARLINK-3997,1 52609U 22052M   22151.50001157  .00081795  00000-0  58240-3 0  9995,2 52609  53.2146 357.1498 0001277 118.7937 156.9551 15.73165741  3000,6727.993,91.535,350.717,348.999,0.0
52609.0,STARLINK-3997,PAYLOAD,2022-05-31 19:58:51,15.73212716,0.0001063,53.2151,355.5048,108.3629,251.7507,8.0658e-05,0.00010721,0.0,0 STARLINK-3997,1 52609U 22052M   22151.83254047  .00010721  00000-0  80658-4 0  9999,2 52609  53.2151 355.5048 0001063 108.3629 251.7507 15.73212716  3050,6727.859,91.532,350.439,349.009,0.0
52609.0,STARLINK-3997,PAYLOAD,2022-05-31 22:00:00,15.73222204,9.92e-05,53.2149,355.0901,108.9412,8.0043,-0.00017826,-0.00025584,0.0,0 STARLINK-3997,1 52609U 22052M   22151.91667824 -.00025584  00000-0 -17826-3 0  9990,2 52609  53.2149 355.0901 0000992 108.9412   8.0043 15.73222204  1303,6727.831999999999,91.532,350.36400000000015,349.029,0.0
52609.0,STARLINK-3997,PAYLOAD,2022-06-01 04:00:00,15.73013386,0.0001335,53.2165,353.8491,117.4204,336.1959,0.0021571,0.0031111,0.0,0 STARLINK-3997,1 52609U 22052M   22152.16667824  .00311110  00000-0  21571-2 0  9990,2 52609  53.2165 353.8491 0001335 117.4204 336.1959 15.73013386  3118,6728.427,91.544,351.191,349.394,0.0
52609.0,STARLINK-3997,PAYLOAD,2022-06-01 20:00:01,15.73234628,0.0001171,53.2143,350.5533,106.3408,165.2651,-0.00049409,-0.00069493,0.0,0 STARLINK-3997,1 52609U 22052M   22152.83334491 -.00069493  00000-0 -49409-3 0  9992,2 52609  53.2143 350.5533 0001171 106.3408 165.2651 15.73234628  3211,6727.795999999999,91.531,350.449,348.874,0.0
52609.0,STARLINK-3997,PAYLOAD,2022-06-02 16:11:45,15.73213006,0.0002186,53.2139,346.3866,113.992,246.133,-1.0879e-05,-2.149e-05,0.0,0 STARLINK-3997,1 52609U 22052M   22153.67482936 -.00002149  00000-0 -10879-4 0  9998,2 52609  53.2139 346.3866 0002186 113.9920 246.1330 15.73213006  3342,6727.858,91.532,351.194,348.25199999999984,0.0
52609.0,STARLINK-3997,PAYLOAD,2022-06-02 19:14:43,15.73182839,0.0001449,53.2145,345.7581,107.7324,252.3855,-8.1574e-05,-0.00012044,0.0,0 STARLINK-3997,1 52609U 22052M   22153.80189435 -.00012044  00000-0 -81574-4 0  9996,2 52609  53.2145 345.7581 0001449 107.7324 252.3855 15.73182839  3009,6727.944,91.534,350.784,348.834,0.0
52609.0,STARLINK-3997,PAYLOAD,2022-06-02 23:49:09,15.73195005,0.0001633,53.2145,344.8144,111.9869,248.1324,-3.3801e-05,-5.36e-05,0.0,0 STARLINK-3997,1 52609U 22052M   22153.99247666 -.00005360  00000-0 -33801-4 0  9990,2 52609  53.2145 344.8144 0001633 111.9869 248.1324 15.73195005  3395,6727.909000000002,91.533,350.87300000000016,348.676,0.0
52609.0,STARLINK-3997,PAYLOAD,2022-06-03 13:32:29,15.73211393,0.0001520999999999,53.2148,341.9856,102.8852,257.2338,7.4436e-06,4.25e-06,0.0,0 STARLINK-3997,1 52609U 22052M   22154.56422590  .00000425  00000-0  74436-5 0  9990,2 52609  53.2148 341.9856 0001521 102.8852 257.2338 15.73211393  3129,6727.863,91.533,350.751,348.704,0.0
52609.0,STARLINK-3997,PAYLOAD,2022-06-03 18:07:00,15.73040276,0.0001452,53.2146,341.0433,75.4238,284.6943,-0.0003876,-0.00054298,0.0,0 STARLINK-3997,1 52609U 22052M   22154.75486864 -.00054298  00000-0 -38760-3 0  9992,2 52609  53.2146 341.0433 0001452  75.4238 284.6943 15.73040276  3514,6728.351,91.542,351.1930000000001,349.23900000000015,0.0
52609.0,STARLINK-3997,PAYLOAD,2022-06-03 21:10:02,15.72920903,0.0001801,53.2147,340.4145,80.8819,279.2404,-0.00065752,-0.00090828,0.0,0 STARLINK-3997,1 52609U 22052M   22154.88197575 -.00090828  00000-0 -65752-3 0  9994,2 52609  53.2147 340.4145 0001801  80.8819 279.2404 15.72920903  3178,6728.691,91.549,351.76800000000014,349.344,0.0
52609.0,STARLINK-3997,PAYLOAD,2022-06-04 00:13:32,15.71803946,0.0005662999999999,53.2145,339.788,116.4894,243.6707,-0.0036397,-0.00457308,0.0,0 STARLINK-3997,1 52609U 22052M   22155.00940531 -.00457308  00000-0 -36397-2 0  9999,2 52609  53.2145 339.7880 0005663 116.4894 243.6707 15.71803946  3551,6731.878000000002,91.614,357.556,349.931,0.0
52609.0,STARLINK-3997,PAYLOAD,2022-06-05 20:00:01,15.69804091,0.000122,53.2176,330.797,95.199,149.7264,-0.0064306,-0.00718401,0.0,0 STARLINK-3997,1 52609U 22052M   22156.83334491 -.00718401  00000-0 -64306-2 0  9998,2 52609  53.2176 330.7970 0001220  95.1990 149.7264 15.69804091  3846,6737.595,91.731,360.281,358.63800000000015,0.0
52609.0,STARLINK-3997,PAYLOAD,2022-06-05 22:00:00,15.69674664,0.0001028,53.2174,330.3874,95.3522,260.7647,-0.0064339,-0.00715133,0.0,0 STARLINK-3997,1 52609U 22052M   22156.91667824 -.00715133  00000-0 -64339-2 0  9991,2 52609  53.2174 330.3874 0001028  95.3522 260.7647 15.69674664  1301,6737.965,91.739,360.523,359.13699999999994,0.0
52609.0,STARLINK-3997,PAYLOAD,2022-06-06 14:00:01,15.68655848,0.0001185,53.2175,327.11,82.102,82.1656,-0.0067272999999999,-0.00716623,0.0,0 STARLINK-3997,1 52609U 22052M   22157.58334491 -.00716623  00000-0 -67273-2 0  9991,2 52609  53.2175 327.1100 0001185  82.1020  82.1656 15.68655848  1307,6740.882,91.798,363.546,361.948,0.0
52609.0,STARLINK-3997,PAYLOAD,2022-06-06 20:00:01,15.68273892,0.0001202,53.2175,325.8844,102.0538,34.6367,-0.0068375,-0.00716929,0.0,0 STARLINK-3997,1 52609U 22052M   22157.83334491 -.00716929  00000-0 -68375-2 0  9992,2 52609  53.2175 325.8844 0001202 102.0538  34.6367 15.68273892  4009,6741.976,91.821,364.652,363.031,0.0
52609.0,STARLINK-3997,PAYLOAD,2022-06-06 22:00:00,15.68142684,0.0001217,53.2175,325.4757,107.4173,140.006,-0.0068131,-0.00711031,0.0,0 STARLINK-3997,1 52609U 22052M   22157.91667824 -.00711031  00000-0 -68131-2 0  9999,2 52609  53.2175 325.4757 0001217 107.4173 140.0060 15.68142684  1304,6742.353,91.828,365.038,363.397,0.0
52609.0,STARLINK-3997,PAYLOAD,2022-06-07 14:00:01,15.67127873,0.0001046,53.2178,322.2061,79.6184,332.2771,-0.0071968,-0.00719639,0.0,0 STARLINK-3997,1 52609U 22052M   22158.58334491 -.00719639  00000-0 -71968-2 0  9998,2 52609  53.2178 322.2061 0001046  79.6184 332.2771 15.67127873  1308,6745.263000000001,91.888,367.834,366.422,0.0
52609.0,STARLINK-3997,PAYLOAD,2022-06-07 20:00:01,15.6674436,0.0001045,53.2177,320.9831,88.1457,294.8602,-0.0072933999999999,-0.00718113,0.0,0 STARLINK-3997,1 52609U 22052M   22158.83335648 -.00718113  00000-0 -72934-2 0  9991,2 52609  53.2177 320.9831 0001045  88.1457 294.8602 15.66744360  4162,6746.364000000001,91.91,368.934,367.524,0.0
52609.0,STARLINK-3997,PAYLOAD,2022-06-07 22:00:00,15.66612159,0.0001106,53.2174,320.5752,81.6049,51.6092,-0.0072385,-0.00709635,0.0,0 STARLINK-3997,1 52609U 22052M   22158.91667824 -.00709635  00000-0 -72385-2 0  9993,2 52609  53.2174 320.5752 0001106  81.6049  51.6092 15.66612159  1305,6746.743,91.918,369.354,367.862,0.0
52609.0,STARLINK-3997,PAYLOAD,2022-06-08 14:00:01,15.65596717,0.0001144,53.2176,317.3132,80.2638,213.7458,-0.0076278,-0.00717026,0.0,0 STARLINK-3997,1 52609U 22052M   22159.58334491 -.00717026  00000-0 -76278-2 0  9996,2 52609  53.2176 317.3132 0001144  80.2638 213.7458 15.65596717  1301,6749.66,91.978,372.297,370.753,0.0
52609.0,STARLINK-3997,PAYLOAD,2022-06-08 20:00:01,15.65214041,0.0001145,53.2175,316.0929,100.0324,163.6431,-0.0077361,-0.00716166,0.0,0 STARLINK-3997,1 52609U 22052M   22159.83334491 -.00716166  00000-0 -77361-2 0  9992,2 52609  53.2175 316.0929 0001145 100.0324 163.6431 15.65214041  4319,6750.76,92.0,373.398,371.852,0.0
